NORAD_CAT_ID,OBJECT_NAME,OBJECT_TYPE,EPOCH,MEAN_MOTION,ECCENTRICITY,INCLINATION,RA_OF_ASC_NODE,ARG_OF_PERICENTER,MEAN_ANOMALY,BSTAR,MEAN_MOTION_DOT,MEAN_MOTION_DDOT,TLE_LINE0,TLE_LINE1,TLE_LINE2,SEMIMAJOR_AXIS,PERIOD,APOGEE,PERIGEE,DECAYED
52003.0,STARLINK-3654,PAYLOAD,2023-04-27 05:35:17,15.08828446,0.0001638,53.2173,41.3333,86.9722,273.1458,-3.0615e-05,-7.75e-06,0.0,0 STARLINK-3654,1 52003U 22025AZ  23117.23284536 -.00000775  00000-0 -30615-4 0  9998,2 52003  53.2173  41.3333 0001638  86.9722 273.1458 15.08828446 64301,6917.916,95.438,540.914,538.648,0.0
52003.0,STARLINK-3654,PAYLOAD,2023-04-28 02:15:18,15.08872403,0.000104,53.2165,37.4691,103.0109,257.0999,0.0012135,0.00019095,0.0,0 STARLINK-3654,1 52003U 22025AZ  23118.09395930  .00019095  00000-0  12135-2 0  9992,2 52003  53.2165  37.4691 0001040 103.0109 257.0999 15.08872403 64439,6917.781,95.436,540.366,538.927,0.0
52003.0,STARLINK-3654,PAYLOAD,2023-04-28 11:47:36,15.08865342,0.0001377,53.2178,35.6872,76.6263,283.4882,0.00024062,3.546e-05,0.0,0 STARLINK-3654,1 52003U 22025AZ  23118.49139580  .00003546  00000-0  24062-3 0  9990,2 52003  53.2178  35.6872 0001377  76.6263 283.4882 15.08865342 64497,6917.803,95.436,540.621,538.715,0.0
52003.0,STARLINK-3654,PAYLOAD,2023-04-28 18:09:09,15.08850488,0.0001384,53.2163,34.4953,91.1378,268.9772,-0.0001062,-1.978e-05,0.0,0 STARLINK-3654,1 52003U 22025AZ  23118.75635623 -.00001978  00000-0 -10620-3 0  9992,2 52003  53.2163  34.4953 0001384  91.1378 268.9772 15.08850488 64531,6917.848,95.437,540.671,538.756,0.0
52003.0,STARLINK-3654,PAYLOAD,2023-04-29 00:30:41,15.08852705,0.000103,53.2166,33.3067,88.6942,271.4168,0.00026521,3.937e-05,0.0,0 STARLINK-3654,1 52003U 22025AZ  23119.02131429  .00003937  00000-0  26521-3 0  9990,2 52003  53.2166  33.3067 0001030  88.6942 271.4168 15.08852705 63063,6917.842,95.437,540.419,538.994,0.0
52003.0,STARLINK-3654,PAYLOAD,2023-04-30 03:32:15,15.08849717,0.0001086,53.215,28.251,85.8383,274.2733,0.00054126,8.339e-05,0.0,0 STARLINK-3654,1 52003U 22025AZ  23120.14739650  .00008339  00000-0  54126-3 0  9998,2 52003  53.2150  28.2510 0001086  85.8383 274.2733 15.08849717 64745,6917.851,95.437,540.467,538.964,0.0
52003.0,STARLINK-3654,PAYLOAD,2023-04-30 21:01:29,15.0884206,0.0001132,53.2151,24.9804,88.4549,271.6573,0.00020705,3.009e-05,0.0,0 STARLINK-3654,1 52003U 22025AZ  23120.87603907  .00003009  00000-0  20705-3 0  9998,2 52003  53.2151  24.9804 0001132  88.4549 271.6573 15.08842060 64859,6917.874,95.437,540.522,538.956,0.0
52003.0,STARLINK-3654,PAYLOAD,2023-05-01 03:23:02,15.08846085,0.000123,53.216,23.7903,90.495,269.6183,0.00028019,4.175e-05,0.0,0 STARLINK-3654,1 52003U 22025AZ  23121.14099820  .00004175  00000-0  28019-3 0  9993,2 52003  53.2160  23.7903 0001230  90.4950 269.6183 15.08846085 63386,6917.862,95.437,540.578,538.876,0.0
52003.0,STARLINK-3654,PAYLOAD,2023-05-01 20:52:16,15.08844473,0.0001473,53.218,20.5144,117.2138,242.9005,0.00020751,3.016e-05,0.0,0 STARLINK-3654,1 52003U 22025AZ  23121.86963697  .00003016  00000-0  20751-3 0  9992,2 52003  53.2180  20.5144 0001473 117.2138 242.9005 15.08844473 63493,6917.867,95.437,540.751,538.713,0.0
52003.0,STARLINK-3654,PAYLOAD,2023-05-02 03:13:49,15.08851585,0.0001011,53.2178,19.3296,86.3654,273.7453,0.00026929,4.002e-05,0.0,0 STARLINK-3654,1 52003U 22025AZ  23122.13459492  .00004002  00000-0  26929-3 0  9995,2 52003  53.2178  19.3296 0001011  86.3654 273.7453 15.08851585 65045,6917.845,95.437,540.409,539.011,0.0
52003.0,STARLINK-3654,PAYLOAD,2023-05-02 20:43:03,15.08843484,0.0001074,53.2181,16.0583,71.7536,288.3573,2.7493e-06,-2.44e-06,0.0,0 STARLINK-3654,1 52003U 22025AZ  23122.86323686 -.00000244  00000-0  27493-5 0  9994,2 52003  53.2181  16.0583 0001074  71.7536 288.3573 15.08843484 63646,6917.87,95.437,540.478,538.992,0.0
52003.0,STARLINK-3654,PAYLOAD,2023-05-03 03:04:35,15.08849978,9.1e-05,53.217,14.8689,90.7363,269.3734,0.00018453,2.651e-05,0.0,0 STARLINK-3654,1 52003U 22025AZ  23123.12819245  .00002651  00000-0  18453-3 0  9992,2 52003  53.2170  14.8689 0000910  90.7363 269.3734 15.08849978 65198,6917.85,95.437,540.344,539.085,0.0
52003.0,STARLINK-3654,PAYLOAD,2023-05-03 09:26:08,15.08843743,7.38e-05,53.217,13.6793,97.4334,262.6742,6.0813e-05,6.8e-06,0.0,0 STARLINK-3654,1 52003U 22025AZ  23123.39315389  .00000680  00000-0  60813-4 0  9999,2 52003  53.2170  13.6793 0000738  97.4334 262.6742 15.08843743 63727,6917.869,95.437,540.244,539.223,0.0
52003.0,STARLINK-3654,PAYLOAD,2023-05-03 20:33:51,15.08831924,9.31e-05,53.2167,11.6003,93.6,266.5099,-0.00015645,-2.776e-05,0.0,0 STARLINK-3654,1 52003U 22025AZ  23123.85684169 -.00002776  00000-0 -15645-3 0  9997,2 52003  53.2167  11.6003 0000931  93.6000 266.5099 15.08831924 65300,6917.905,95.438,540.414,539.126,0.0
52003.0,STARLINK-3654,PAYLOAD,2023-05-03 22:09:14,15.08833159,9.79e-05,53.2172,11.3016,83.6079,276.5024,-0.00011014,-2.04e-05,0.0,0 STARLINK-3654,1 52003U 22025AZ  23123.92308229 -.00002040  00000-0 -11014-3 0  9995,2 52003  53.2172  11.3016 0000979  83.6079 276.5024 15.08833159 63808,6917.901,95.438,540.444,539.089,0.0
52003.0,STARLINK-3654,PAYLOAD,2023-05-04 09:16:56,15.08837709,9.27e-05,53.217,9.2223,94.0802,266.0296,2.4936e-05,1.09e-06,0.0,0 STARLINK-3654,1 52003U 22025AZ  23124.38676117  .00000109  00000-0  24936-4 0  9990,2 52003  53.2170   9.2223 0000927  94.0802 266.0296 15.08837709 63872,6917.887,95.438,540.394,539.111,0.0
52003.0,STARLINK-3654,PAYLOAD,2023-05-04 20:24:37,15.08843039,9.12e-05,53.2165,7.1412,101.499,258.6104,9.4572e-05,1.218e-05,0.0,0 STARLINK-3654,1 52003U 22025AZ  23124.85043956  .00001218  00000-0  94572-4 0  9996,2 52003  53.2165   7.1412 0000912 101.4990 258.6104 15.08843039 65452,6917.871,95.437,540.367,539.105,0.0
52003.0,STARLINK-3654,PAYLOAD,2023-05-04 22:00:01,15.08845476,8.83e-05,53.2169,6.8425,95.6198,264.4895,0.00010279,1.349e-05,0.0,0 STARLINK-3654,1 52003U 22025AZ  23124.91667855  .00001349  00000-0  10279-3 0  9999,2 52003  53.2169   6.8425 0000883  95.6198 264.4895 15.08845476 63959,6917.864,95.437,540.339,539.118,0.0
52003.0,STARLINK-3654,PAYLOAD,2023-05-05 21:50:48,15.08842066,8.61e-05,53.216,2.3825,88.239,271.87,0.00022547,3.303e-05,0.0,0 STARLINK-3654,1 52003U 22025AZ  23125.91028287  .00003303  00000-0  22547-3 0  9993,2 52003  53.2160   2.3825 0000861  88.2390 271.8700 15.08842066 65617,6917.874,95.437,540.335,539.143,0.0
52003.0,STARLINK-3654,PAYLOAD,2023-05-05 23:26:11,15.08846348,9.17e-05,53.2165,2.0838,89.8308,270.2789,0.00025411,3.759e-05,0.0,0 STARLINK-3654,1 52003U 22025AZ  23125.97652079  .00003759  00000-0  25411-3 0  9999,2 52003  53.2165   2.0838 0000917  89.8308 270.2789 15.08846348 64112,6917.861,95.437,540.36,539.092,0.0
52003.0,STARLINK-3654,PAYLOAD,2023-05-07 00:52:21,15.0884892,0.0001021,53.217,357.3247,91.3304,268.7805,0.00023701,3.487e-05,0.0,0 STARLINK-3654,1 52003U 22025AZ  23127.03636006  .00003487  00000-0  23701-3 0  9998,2 52003  53.2170 357.3247 0001021  91.3304 268.7805 15.08848920 65782,6917.853,95.437,540.424,539.012,0.0
52003.0,STARLINK-3654,PAYLOAD,2023-05-07 21:32:22,15.08840151,0.0001015,53.2164,353.4595,96.1797,263.9311,0.00014317,1.992e-05,0.0,0 STARLINK-3654,1 52003U 22025AZ  23127.89748624  .00001992  00000-0  14317-3 0  9994,2 52003  53.2164 353.4595 0001015  96.1797 263.9311 15.08840151 65912,6917.88,95.438,540.447,539.043,0.0
52003.0,STARLINK-3654,PAYLOAD,2023-05-08 21:23:09,15.08849709,9.72e-05,53.2162,348.9999,85.8544,274.2559,0.00029519,4.414e-05,0.0,0 STARLINK-3654,1 52003U 22025AZ  23128.89108412  .00004414  00000-0  29519-3 0  9992,2 52003  53.2162 348.9999 0000972  85.8544 274.2559 15.08849709 64559,6917.851,95.437,540.388,539.043,0.0
52003.0,STARLINK-3654,PAYLOAD,2023-05-09 21:13:57,15.08838638,0.0001013,53.2162,344.539,90.3213,269.7896,4.421e-05,4.16e-06,0.0,0 STARLINK-3654,1 52003U 22025AZ  23129.88468835  .00000416  00000-0  44210-4 0  9994,2 52003  53.2162 344.5390 0001013  90.3213 269.7896 15.08838638 64706,6917.885,95.438,540.45,539.049,0.0
52003.0,STARLINK-3654,PAYLOAD,2023-05-10 21:04:44,15.08843689,8.88e-05,53.2167,340.0797,89.1147,270.9947,0.00011544,1.55e-05,0.0,0 STARLINK-3654,1 52003U 22025AZ  23130.87828740  .00001550  00000-0  11544-3 0  9993,2 52003  53.2167 340.0797 0000888  89.1147 270.9947 15.08843689 66361,6917.869,95.437,540.348,539.12,0.0
52003.0,STARLINK-3654,PAYLOAD,2023-05-10 22:40:07,15.08844308,9.4e-05,53.216,339.7819,87.9897,272.1203,0.00018936,2.728e-05,0.0,0 STARLINK-3654,1 52003U 22025AZ  23130.94452706  .00002728  00000-0  18936-3 0  9996,2 52003  53.2160 339.7819 0000940  87.9897 272.1203 15.08844308 64862,6917.867,95.437,540.383,539.082,0.0
52003.0,STARLINK-3654,PAYLOAD,2023-05-11 20:55:31,15.08841374,0.0001026,53.2155,335.6187,97.6102,262.5007,0.00010554,1.392e-05,0.0,0 STARLINK-3654,1 52003U 22025AZ  23131.87189002  .00001392  00000-0  10554-3 0  9999,2 52003  53.2155 335.6187 0001026  97.6102 262.5007 15.08841374 66511,6917.876,95.437,540.451,539.031,0.0
52003.0,STARLINK-3654,PAYLOAD,2023-05-12 17:35:32,15.08841708,9.26e-05,53.216,331.7524,112.0577,248.0514,3.8266e-05,3.21e-06,0.0,0 STARLINK-3654,1 52003U 22025AZ  23132.73301152  .00000321  00000-0  38266-4 0  9999,2 52003  53.2160 331.7524 0000926 112.0577 248.0514 15.08841708 65135,6917.875,95.437,540.381,539.1,0.0
52003.0,STARLINK-3654,PAYLOAD,2023-05-13 20:37:05,15.08847074,9.47e-05,53.2171,326.6977,89.9891,270.1209,0.0002159,3.151e-05,0.0,0 STARLINK-3654,1 52003U 22025AZ  23133.85908993  .00003151  00000-0  21590-3 0  9994,2 52003  53.2171 326.6977 0000947  89.9891 270.1209 15.08847074 66811,6917.859,95.437,540.379,539.069,0.0
52003.0,STARLINK-3654,PAYLOAD,2023-05-14 06:09:24,15.08840764,0.0001089,53.2157,324.9132,79.1618,280.9497,0.00010227,1.34e-05,0.0,0 STARLINK-3654,1 52003U 22025AZ  23134.25653439  .00001340  00000-0  10227-3 0  9994,2 52003  53.2157 324.9132 0001089  79.1618 280.9497 15.08840764 66878,6917.878,95.438,540.496,538.99,0.0
